HAWK-5A                 
1 52757U 22057AB  26157.39988342  .00026411  00000+0  45547-3 0  9990
2 52757  97.6593 315.5555 0005971 110.7572 249.4320 15.51002045224679
HAWK-6B                 
1 55324U 23011A   26157.42825774  .00005468  00000+0  23683-3 0  9993
2 55324  40.4987  54.8210 0004132 303.4961  56.5453 15.22833664186204
HAWK-6C                 
1 55326U 23011C   26157.42761563  .00005275  00000+0  22874-3 0  9997
2 55326  40.4981  51.6633 0004637 292.8717  67.1603 15.22837856186217
HAWK-6A                 
1 55327U 23011D   26157.42764580  .00005594  00000+0  24211-3 0  9991
2 55327  40.4987  53.2869 0004295 292.3056  67.7298 15.22834948186219
HAWK-7A                 
1 56191U 23054P   26155.66204525  .00001811  00000+0  70547-4 0  9992
2 56191  97.2694  43.3169 0004651  84.2511 275.9259 15.27218144175113
HAWK-7B                 
1 56193U 23054R   26157.43101083  .00007353  00000+0  27799-3 0  9993
2 56193  97.2735  43.3017 0004049  90.4967 269.6737 15.27250078175380
HAWK-7C                 
1 56200U 23054Y   26157.49641423  .00007380  00000+0  27899-3 0  9996
2 56200  97.2713  44.1374 0004149  82.4961 277.6749 15.27248703175391
